[{"OBJECT_NAME":"STARLINK-6203","OBJECT_ID":"2023-083Z","EPOCH":"2026-03-09T22:00:01.999584","MEAN_MOTION":15.16916357,"ECCENTRICITY":0.00019394,"INCLINATION":43.0003,"RA_OF_ASC_NODE":79.6472,"ARG_OF_PERICENTER":280.7342,"MEAN_ANOMALY":127.9387,"EPHEMERIS_TYPE":0,"CLASSIFICATION_TYPE":"U","NORAD_CAT_ID":56899,"ELEMENT_SET_NO":999,"REV_AT_EPOCH":572,"BSTAR":0.063222474,"MEAN_MOTION_DOT":0.01382693,"MEAN_MOTION_DDOT":0},{"OBJECT_NAME":"FOSSASAT-2E21","OBJECT_ID":"2025-135J","EPOCH":"2026-03-09T20:26:11.535360","MEAN_MOTION":15.19342194,"ECCENTRICITY":0.00047332,"INCLINATION":97.4527,"RA_OF_ASC_NODE":184.3473,"ARG_OF_PERICENTER":156.4187,"MEAN_ANOMALY":203.7265,"EPHEMERIS_TYPE":0,"CLASSIFICATION_TYPE":"U","NORAD_CAT_ID":64536,"ELEMENT_SET_NO":999,"REV_AT_EPOCH":3973,"BSTAR":0.00023900461,"MEAN_MOTION_DOT":4.984e-5,"MEAN_MOTION_DDOT":0}]
